start=new Date('2023-01-08T00:00:00.000Z').valueOf();
sats=[{"SITE":"AFETR","MEAN_ANOMALY":"257.8030","RCS_SIZE":"LARGE","GP_ID":"222422747","CENTER_NAME":"EARTH","RA_OF_ASC_NODE":"146.8564","SEMIMAJOR_AXIS":"6925.398","LAUNCH_DATE":"2021-05-04","NORAD_CAT_ID":"48370","DECAY_DATE":null,"OBJECT_TYPE":"PAYLOAD","OBJECT_NAME":"STARLINK-2621","ELEMENT_SET_NO":"999","MEAN_MOTION":"15.06383774","PERIOD":"95.593","MEAN_MOTION_DDOT":"0.0000000000000","TIME_SYSTEM":"UTC","COUNTRY_CODE":"US","MEAN_ELEMENT_THEORY":"SGP4","OBJECT_ID":"2021-038T","EPHEMERIS_TYPE":"0","EPOCH":"2023-01-07T09:50:12.137280","APOAPSIS":"548.187","REV_AT_EPOCH":"9273","REF_FRAME":"TEME","PERIAPSIS":"546.339","TLE_LINE1":"1 48370U 21038T   23007.40986270  .00002136  00000-0  16228-3 0  9998","TLE_LINE2":"2 48370  53.0535 146.8564 0001334 102.3108 257.8030 15.06383774 92735","FILE":"3735488","MEAN_MOTION_DOT":"0.00002136","ECCENTRICITY":"0.00013340","ARG_OF_PERICENTER":"102.3108","CLASSIFICATION_TYPE":"U","BSTAR":"0.00016228000000","INCLINATION":"53.0535"},{"PERIAPSIS":"546.374","TLE_LINE1":"1 48371U 21038U   23007.67156502 -.00001250  00000-0 -65028-4 0  9996","REV_AT_EPOCH":"9277","APOAPSIS":"548.107","REF_FRAME":"TEME","EPOCH":"2023-01-07T16:07:03.217728","EPHEMERIS_TYPE":"0","MEAN_ELEMENT_THEORY":"SGP4","OBJECT_ID":"2021-038U","CLASSIFICATION_TYPE":"U","ARG_OF_PERICENTER":"76.5228","ECCENTRICITY":"0.00012510","MEAN_MOTION_DOT":"-0.00001250","FILE":"3735488","TLE_LINE2":"2 48371  53.0534 145.6790 0001251  76.5228 283.5900 15.06391097 92779","BSTAR":"-0.00006502800000","INCLINATION":"53.0534","SEMIMAJOR_AXIS":"6925.376","RA_OF_ASC_NODE":"145.6790","CENTER_NAME":"EARTH","GP_ID":"222423497","RCS_SIZE":"LARGE","SITE":"AFETR","MEAN_ANOMALY":"283.5900","OBJECT_TYPE":"PAYLOAD","DECAY_DATE":null,"LAUNCH_DATE":"2021-05-04","NORAD_CAT_ID":"48371","OBJECT_NAME":"STARLINK-2589","COUNTRY_CODE":"US","MEAN_MOTION_DDOT":"0.0000000000000","TIME_SYSTEM":"UTC","PERIOD":"95.593","MEAN_MOTION":"15.06391097","ELEMENT_SET_NO":"999"},{"COUNTRY_CODE":"US","TIME_SYSTEM":"UTC","MEAN_MOTION_DDOT":"0.0000000000000","PERIOD":"95.593","MEAN_MOTION":"15.06393978","ELEMENT_SET_NO":"999","OBJECT_NAME":"STARLINK-2572","OBJECT_TYPE":"PAYLOAD","DECAY_DATE":null,"NORAD_CAT_ID":"48372","LAUNCH_DATE":"2021-05-04","RA_OF_ASC_NODE":"145.6929","SEMIMAJOR_AXIS":"6925.367","GP_ID":"222423748","CENTER_NAME":"EARTH","RCS_SIZE":"LARGE","SITE":"AFETR","MEAN_ANOMALY":"280.6023","INCLINATION":"53.0531","BSTAR":"-0.00000012756000","CLASSIFICATION_TYPE":"U","ARG_OF_PERICENTER":"79.5119","MEAN_MOTION_DOT":"-0.00000283","ECCENTRICITY":"0.00013560","FILE":"3735488","TLE_LINE2":"2 48372  53.0531 145.6929 0001356  79.5119 280.6023 15.06393978 92773","PERIAPSIS":"546.293","TLE_LINE1":"1 48372U 21038V   23007.66786330 -.00000283  00000-0 -12756-6 0  9991","APOAPSIS":"548.171","REV_AT_EPOCH":"9277","REF_FRAME":"TEME","EPOCH":"2023-01-07T16:01:43.389120","EPHEMERIS_TYPE":"0","MEAN_ELEMENT_THEORY":"SGP4","OBJECT_ID":"2021-038V"},{"ARG_OF_PERICENTER":"82.8510","CLASSIFICATION_TYPE":"U","FILE":"3735488","TLE_LINE2":"2 48373  53.0533 145.1076 0001220  82.8510 277.2617 15.06396708 92793","ECCENTRICITY":"0.00012200","MEAN_MOTION_DOT":"-0.00000437","EPOCH":"2023-01-07T19:07:29.595648","TLE_LINE1":"1 48373U 21038W   23007.79687032 -.00000437  00000-0 -10454-4 0  9997","PERIAPSIS":"546.379","REF_FRAME":"TEME","APOAPSIS":"548.069","REV_AT_EPOCH":"9279","OBJECT_ID":"2021-038W","MEAN_ELEMENT_THEORY":"SGP4","EPHEMERIS_TYPE":"0","INCLINATION":"53.0533","BSTAR":"-0.00001045400000","OBJECT_TYPE":"PAYLOAD","DECAY_DATE":null,"LAUNCH_DATE":"2021-05-04","NORAD_CAT_ID":"48373","CENTER_NAME":"EARTH","GP_ID":"222422497","SEMIMAJOR_AXIS":"6925.359","RA_OF_ASC_NODE":"145.1076","SITE":"AFETR","MEAN_ANOMALY":"277.2617","RCS_SIZE":"LARGE","TIME_SYSTEM":"UTC","MEAN_MOTION_DDOT":"0.0000000000000","PERIOD":"95.592","COUNTRY_CODE":"US","MEAN_MOTION":"15.06396708","ELEMENT_SET_NO":"999","OBJECT_NAME":"STARLINK-2609"},{"INCLINATION":"53.0558","BSTAR":"-0.00000333890000","MEAN_MOTION_DOT":"-0.00000331","ECCENTRICITY":"0.00015740","FILE":"3735488","TLE_LINE2":"2 48374  53.0558 145.7280 0001574  82.1681 277.9487 15.06399725 92770","CLASSIFICATION_TYPE":"U","ARG_OF_PERICENTER":"82.1681","EPHEMERIS_TYPE":"0","MEAN_ELEMENT_THEORY":"SGP4","OBJECT_ID":"2021-038X","PERIAPSIS":"546.124","TLE_LINE1":"1 48374U 21038X   23007.65954354 -.00000331  00000-0 -33389-5 0  9993","APOAPSIS":"548.304","REF_FRAME":"TEME","REV_AT_EPOCH":"9277","EPOCH":"2023-01-07T15:49:44.561856","MEAN_MOTION":"15.06399725","ELEMENT_SET_NO":"999","COUNTRY_CODE":"US","TIME_SYSTEM":"UTC","MEAN_MOTION_DDOT":"0.0000000000000","PERIOD":"95.592","OBJECT_NAME":"STARLINK-2604","DECAY_DATE":null,"NORAD_CAT_ID":"48374","LAUNCH_DATE":"2021-05-04","OBJECT_TYPE":"PAYLOAD","RCS_SIZE":"LARGE","SITE":"AFETR","MEAN_ANOMALY":"277.9487","RA_OF_ASC_NODE":"145.7280","SEMIMAJOR_AXIS":"6925.349","CENTER_NAME":"EARTH","GP_ID":"222422247"},{"OBJECT_NAME":"STARLINK-2603","TIME_SYSTEM":"UTC","MEAN_MOTION_DDOT":"0.0000000000000","PERIOD":"95.592","COUNTRY_CODE":"US","MEAN_MOTION":"15.06396231","ELEMENT_SET_NO":"999","GP_ID":"222422997","CENTER_NAME":"EARTH","SEMIMAJOR_AXIS":"6925.360","RA_OF_ASC_NODE":"145.1459","MEAN_ANOMALY":"280.3989","SITE":"AFETR","RCS_SIZE":"LARGE","OBJECT_TYPE":"PAYLOAD","DECAY_DATE":null,"LAUNCH_DATE":"2021-05-04","NORAD_CAT_ID":"48375","BSTAR":"-0.00001572000000","INCLINATION":"53.0547","EPOCH":"2023-01-07T18:56:52.286784","TLE_LINE1":"1 48375U 21038Y   23007.78949406 -.00000516  00000-0 -15720-4 0  9993","PERIAPSIS":"546.249","APOAPSIS":"548.201","REV_AT_EPOCH":"9279","REF_FRAME":"TEME","OBJECT_ID":"2021-038Y","MEAN_ELEMENT_THEORY":"SGP4","EPHEMERIS_TYPE":"0","ARG_OF_PERICENTER":"79.7158","CLASSIFICATION_TYPE":"U","FILE":"3735488","TLE_LINE2":"2 48375  53.0547 145.1459 0001409  79.7158 280.3989 15.06396231 92795","MEAN_MOTION_DOT":"-0.00000516","ECCENTRICITY":"0.00014090"},{"OBJECT_NAME":"STARLINK-2610","ELEMENT_SET_NO":"999","MEAN_MOTION":"15.06391514","PERIOD":"95.593","MEAN_MOTION_DDOT":"0.0000000000000","TIME_SYSTEM":"UTC","COUNTRY_CODE":"US","MEAN_ANOMALY":"301.1898","SITE":"AFETR","RCS_SIZE":"LARGE","GP_ID":"222423248","CENTER_NAME":"EARTH","SEMIMAJOR_AXIS":"6925.375","RA_OF_ASC_NODE":"145.1630","LAUNCH_DATE":"2021-05-04","NORAD_CAT_ID":"48376","DECAY_DATE":null,"OBJECT_TYPE":"PAYLOAD","BSTAR":"0.00012541000000","INCLINATION":"53.0516","OBJECT_ID":"2021-038Z","MEAN_ELEMENT_THEORY":"SGP4","EPHEMERIS_TYPE":"0","EPOCH":"2023-01-07T18:51:34.794432","REF_FRAME":"TEME","APOAPSIS":"548.312","REV_AT_EPOCH":"9279","PERIAPSIS":"546.168","TLE_LINE1":"1 48376U 21038Z   23007.78581938  .00001587  00000-0  12541-3 0  9990","TLE_LINE2":"2 48376  53.0516 145.1630 0001548  58.9243 301.1898 15.06391514 92791","FILE":"3735488","MEAN_MOTION_DOT":"0.00001587","ECCENTRICITY":"0.00015480","ARG_OF_PERICENTER":"58.9243","CLASSIFICATION_TYPE":"U"},{"OBJECT_NAME":"STARLINK-2499","MEAN_MOTION":"15.06400107","ELEMENT_SET_NO":"999","MEAN_MOTION_DDOT":"0.0000000000000","TIME_SYSTEM":"UTC","PERIOD":"95.592","COUNTRY_CODE":"US","MEAN_ANOMALY":"294.1927","SITE":"AFETR","RCS_SIZE":"LARGE","CENTER_NAME":"EARTH","GP_ID":"222421997","RA_OF_ASC_NODE":"145.1722","SEMIMAJOR_AXIS":"6925.348","DECAY_DATE":null,"LAUNCH_DATE":"2021-05-04","NORAD_CAT_ID":"48377","OBJECT_TYPE":"PAYLOAD","BSTAR":"-0.00001464500000","INCLINATION":"53.0535","OBJECT_ID":"2021-038AA","MEAN_ELEMENT_THEORY":"SGP4","EPHEMERIS_TYPE":"0","EPOCH":"2023-01-07T18:46:16.277376","PERIAPSIS":"546.311","TLE_LINE1":"1 48377U 21038AA  23007.78213284 -.00000500  00000-0 -14645-4 0  9991","APOAPSIS":"548.116","REV_AT_EPOCH":"9279","REF_FRAME":"TEME","FILE":"3735488","TLE_LINE2":"2 48377  53.0535 145.1722 0001303  65.9199 294.1927 15.06400107 92795","MEAN_MOTION_DOT":"-0.00000500","ECCENTRICITY":"0.00013030","ARG_OF_PERICENTER":"65.9199","CLASSIFICATION_TYPE":"U"},{"INCLINATION":"53.0535","BSTAR":"0.00003305100000","ARG_OF_PERICENTER":"88.4226","CLASSIFICATION_TYPE":"U","FILE":"3735488","TLE_LINE2":"2 48378  53.0535 145.7980 0001431  88.4226 271.6927 15.06399713 92779","ECCENTRICITY":"0.00014310","MEAN_MOTION_DOT":"0.00000211","EPOCH":"2023-01-07T15:29:52.468224","PERIAPSIS":"546.223","TLE_LINE1":"1 48378U 21038AB  23007.64574616  .00000211  00000-0  33051-4 0  9995","REV_AT_EPOCH":"9277","APOAPSIS":"548.205","REF_FRAME":"TEME","OBJECT_ID":"2021-038AB","MEAN_ELEMENT_THEORY":"SGP4","EPHEMERIS_TYPE":"0","MEAN_MOTION_DDOT":"0.0000000000000","TIME_SYSTEM":"UTC","PERIOD":"95.592","COUNTRY_CODE":"US","MEAN_MOTION":"15.06399713","ELEMENT_SET_NO":"999","OBJECT_NAME":"STARLINK-2526","OBJECT_TYPE":"PAYLOAD","DECAY_DATE":null,"LAUNCH_DATE":"2021-05-04","NORAD_CAT_ID":"48378","CENTER_NAME":"EARTH","GP_ID":"222422748","RA_OF_ASC_NODE":"145.7980","SEMIMAJOR_AXIS":"6925.349","SITE":"AFETR","MEAN_ANOMALY":"271.6927","RCS_SIZE":"LARGE"},{"COUNTRY_CODE":"US","PERIOD":"95.593","TIME_SYSTEM":"UTC","MEAN_MOTION_DDOT":"0.0000000000000","ELEMENT_SET_NO":"999","MEAN_MOTION":"15.06388445","OBJECT_NAME":"STARLINK-2612","OBJECT_TYPE":"PAYLOAD","NORAD_CAT_ID":"48379","LAUNCH_DATE":"2021-05-04","DECAY_DATE":null,"RA_OF_ASC_NODE":"145.8080","SEMIMAJOR_AXIS":"6925.384","GP_ID":"222423498","CENTER_NAME":"EARTH","RCS_SIZE":"MEDIUM","MEAN_ANOMALY":"277.3710","SITE":"AFETR","INCLINATION":"53.0529","BSTAR":"-0.00004334500000","CLASSIFICATION_TYPE":"U","ARG_OF_PERICENTER":"82.7428","ECCENTRICITY":"0.00013120","MEAN_MOTION_DOT":"-0.00000927","TLE_LINE2":"2 48379  53.0529 145.8080 0001312  82.7428 277.3710 15.06388445 92777","FILE":"3735488","REF_FRAME":"TEME","APOAPSIS":"548.158","REV_AT_EPOCH":"9277","TLE_LINE1":"1 48379U 21038AC  23007.64206312 -.00000927  00000-0 -43345-4 0  9994","PERIAPSIS":"546.340","EPOCH":"2023-01-07T15:24:34.253568","EPHEMERIS_TYPE":"0","OBJECT_ID":"2021-038AC","MEAN_ELEMENT_THEORY":"SGP4"}];
